[{"featurecla":"Admin-0 country","scalerank":1,"labelrank":5,"sovereignt":"Costa Rica","sov_a3":"CRI","adm0_dif":0,"level":2,"type":"Sovereign country","tlc":1,"admin":"Costa Rica","adm0_a3":"CRI","geou_dif":0,"geounit":"Costa Rica","gu_a3":"CRI","su_dif":0,"subunit":"Costa Rica","su_a3":"CRI","brk_diff":0,"name":"Costa Rica","name_long":"Costa Rica","brk_a3":"CRI","brk_name":"Costa Rica","brk_group":null,"abbrev":"C.R.","postal":"CR","formal_en":"Republic of Costa Rica","formal_fr":null,"name_ciawf":"Costa Rica","note_adm0":null,"note_brk":null,"name_sort":"Costa Rica","name_alt":null,"mapcolor7":3,"mapcolor8":2,"mapcolor9":4,"mapcolor13":2,"pop_est":5047561,"pop_rank":13,"pop_year":2019,"gdp_md":61801,"gdp_year":2019,"economy":"5. Emerging region: G20","income_grp":"3. Upper middle income","fips_10":"CS","iso_a2":"CR","iso_a2_eh":"CR","iso_a3":"CRI","iso_a3_eh":"CRI","iso_n3":188,"iso_n3_eh":188,"un_a3":188,"wb_a2":"CR","wb_a3":"CRI","woe_id":23424791,"woe_id_eh":23424791,"woe_note":"Exact WOE match as country","adm0_iso":"CRI","adm0_diff":null,"adm0_tlc":"CRI","adm0_a3_us":"CRI","adm0_a3_fr":"CRI","adm0_a3_ru":"CRI","adm0_a3_es":"CRI","adm0_a3_cn":"CRI","adm0_a3_tw":"CRI","adm0_a3_in":"CRI","adm0_a3_np":"CRI","adm0_a3_pk":"CRI","adm0_a3_de":"CRI","adm0_a3_gb":"CRI","adm0_a3_br":"CRI","adm0_a3_il":"CRI","adm0_a3_ps":"CRI","adm0_a3_sa":"CRI","adm0_a3_eg":"CRI","adm0_a3_ma":"CRI","adm0_a3_pt":"CRI","adm0_a3_ar":"CRI","adm0_a3_jp":"CRI","adm0_a3_ko":"CRI","adm0_a3_vn":"CRI","adm0_a3_tr":"CRI","adm0_a3_id":"CRI","adm0_a3_pl":"CRI","adm0_a3_gr":"CRI","adm0_a3_it":"CRI","adm0_a3_nl":"CRI","adm0_a3_se":"CRI","adm0_a3_bd":"CRI","adm0_a3_ua":"CRI","adm0_a3_un":-99,"adm0_a3_wb":-99,"continent":"North America","region_un":"Americas","wws_geo":"AMER","subregion":"Central America","region_wb":"Latin America & Caribbean","name_len":10,"long_len":10,"abbrev_len":4,"tiny":-99,"homepart":1,"min_zoom":0,"min_label":2.5,"max_label":8,"label_x":-84.077922,"label_y":10.0651,"ne_id":1159320525,"wikidataid":"Q800","name_ar":"كوستاريكا","name_bn":"কোস্টা রিকা","name_de":"Costa Rica","name_en":"Costa Rica","name_es":"Costa Rica","name_fa":"کاستاریکا","name_fr":"Costa Rica","name_el":"Κόστα Ρίκα","name_he":"קוסטה ריקה","name_hi":"कोस्टा रीका","name_hu":"Costa Rica","name_id":"Kosta Rika","name_it":"Costa Rica","name_ja":"コスタリカ","name_ko":"코스타리카","name_nl":"Costa Rica","name_pl":"Kostaryka","name_pt":"Costa Rica","name_ru":"Коста-Рика","name_sv":"Costa Rica","name_tr":"Kosta Rika","name_uk":"Коста-Рика","name_ur":"کوسٹاریکا","name_vi":"Costa Rica","name_zh":"哥斯达黎加","name_zht":"哥斯大黎加","fclass_iso":"Admin-0 country","tlc_diff":null,"fclass_tlc":"Admin-0 country","fclass_us":null,"fclass_fr":null,"fclass_ru":null,"fclass_es":null,"fclass_cn":null,"fclass_tw":null,"fclass_in":null,"fclass_np":null,"fclass_pk":null,"fclass_de":null,"fclass_gb":null,"fclass_br":null,"fclass_il":null,"fclass_ps":null,"fclass_sa":null,"fclass_eg":null,"fclass_ma":null,"fclass_pt":null,"fclass_ar":null,"fclass_jp":null,"fclass_ko":null,"fclass_vn":null,"fclass_tr":null,"fclass_id":null,"fclass_pl":null,"fclass_gr":null,"fclass_it":null,"fclass_nl":null,"fclass_se":null,"fclass_bd":null,"fclass_ua":null,"filename":"CRI.geojson"},{"featurecla":"Admin-0 country","scalerank":1,"labelrank":5,"sovereignt":"Nicaragua","sov_a3":"NIC","adm0_dif":0,"level":2,"type":"Sovereign country","tlc":1,"admin":"Nicaragua","adm0_a3":"NIC","geou_dif":0,"geounit":"Nicaragua","gu_a3":"NIC","su_dif":0,"subunit":"Nicaragua","su_a3":"NIC","brk_diff":0,"name":"Nicaragua","name_long":"Nicaragua","brk_a3":"NIC","brk_name":"Nicaragua","brk_group":null,"abbrev":"Nic.","postal":"NI","formal_en":"Republic of Nicaragua","formal_fr":null,"name_ciawf":"Nicaragua","note_adm0":null,"note_brk":null,"name_sort":"Nicaragua","name_alt":null,"mapcolor7":1,"mapcolor8":4,"mapcolor9":1,"mapcolor13":9,"pop_est":6545502,"pop_rank":13,"pop_year":2019,"gdp_md":12520,"gdp_year":2019,"economy":"6. Developing region","income_grp":"4. Lower middle income","fips_10":"NU","iso_a2":"NI","iso_a2_eh":"NI","iso_a3":"NIC","iso_a3_eh":"NIC","iso_n3":558,"iso_n3_eh":558,"un_a3":558,"wb_a2":"NI","wb_a3":"NIC","woe_id":23424915,"woe_id_eh":23424915,"woe_note":"Exact WOE match as country","adm0_iso":"NIC","adm0_diff":null,"adm0_tlc":"NIC","adm0_a3_us":"NIC","adm0_a3_fr":"NIC","adm0_a3_ru":"NIC","adm0_a3_es":"NIC","adm0_a3_cn":"NIC","adm0_a3_tw":"NIC","adm0_a3_in":"NIC","adm0_a3_np":"NIC","adm0_a3_pk":"NIC","adm0_a3_de":"NIC","adm0_a3_gb":"NIC","adm0_a3_br":"NIC","adm0_a3_il":"NIC","adm0_a3_ps":"NIC","adm0_a3_sa":"NIC","adm0_a3_eg":"NIC","adm0_a3_ma":"NIC","adm0_a3_pt":"NIC","adm0_a3_ar":"NIC","adm0_a3_jp":"NIC","adm0_a3_ko":"NIC","adm0_a3_vn":"NIC","adm0_a3_tr":"NIC","adm0_a3_id":"NIC","adm0_a3_pl":"NIC","adm0_a3_gr":"NIC","adm0_a3_it":"NIC","adm0_a3_nl":"NIC","adm0_a3_se":"NIC","adm0_a3_bd":"NIC","adm0_a3_ua":"NIC","adm0_a3_un":-99,"adm0_a3_wb":-99,"continent":"North America","region_un":"Americas","subregion":"Central America","wws_geo":"AMER","region_wb":"Latin America & Caribbean","name_len":9,"long_len":9,"abbrev_len":4,"tiny":-99,"homepart":1,"min_zoom":0,"min_label":4,"max_label":9,"label_x":-85.069347,"label_y":12.670697,"ne_id":1159321091,"wikidataid":"Q811","name_ar":"نيكاراغوا","name_bn":"নিকারাগুয়া","name_de":"Nicaragua","name_en":"Nicaragua","name_es":"Nicaragua","name_fa":"نیکاراگوئه","name_fr":"Nicaragua","name_el":"Νικαράγουα","name_he":"ניקרגואה","name_hi":"निकारागुआ","name_hu":"Nicaragua","name_id":"Nikaragua","name_it":"Nicaragua","name_ja":"ニカラグア","name_ko":"니카라과","name_nl":"Nicaragua","name_pl":"Nikaragua","name_pt":"Nicarágua","name_ru":"Никарагуа","name_sv":"Nicaragua","name_tr":"Nikaragua","name_uk":"Нікарагуа","name_ur":"نکاراگوا","name_vi":"Nicaragua","name_zh":"尼加拉瓜","name_zht":"尼加拉瓜","fclass_iso":"Admin-0 country","tlc_diff":null,"fclass_tlc":"Admin-0 country","fclass_us":null,"fclass_fr":null,"fclass_ru":null,"fclass_es":null,"fclass_cn":null,"fclass_tw":null,"fclass_in":null,"fclass_np":null,"fclass_pk":null,"fclass_de":null,"fclass_gb":null,"fclass_br":null,"fclass_il":null,"fclass_ps":null,"fclass_sa":null,"fclass_eg":null,"fclass_ma":null,"fclass_pt":null,"fclass_ar":null,"fclass_jp":null,"fclass_ko":null,"fclass_vn":null,"fclass_tr":null,"fclass_id":null,"fclass_pl":null,"fclass_gr":null,"fclass_it":null,"fclass_nl":null,"fclass_se":null,"fclass_bd":null,"fclass_ua":null,"filename":"NIC.geojson"},{"featurecla":"Admin-0 country","scalerank":1,"labelrank":5,"sovereignt":"Haiti","sov_a3":"HTI","adm0_dif":0,"level":2,"type":"Sovereign country","tlc":1,"admin":"Haiti","adm0_a3":"HTI","geou_dif":0,"geounit":"Haiti","gu_a3":"HTI","su_dif":0,"subunit":"Haiti","su_a3":"HTI","brk_diff":0,"name":"Haiti","name_long":"Haiti","brk_a3":"HTI","brk_name":"Haiti","brk_group":null,"abbrev":"Haiti","postal":"HT","formal_en":"Republic of Haiti","formal_fr":null,"name_ciawf":"Haiti","note_adm0":null,"note_brk":null,"name_sort":"Haiti","name_alt":null,"mapcolor7":2,"mapcolor8":1,"mapcolor9":7,"mapcolor13":2,"pop_est":11263077,"pop_rank":14,"pop_year":2019,"gdp_md":14332,"gdp_year":2019,"economy":"7. Least developed region","income_grp":"5. Low income","fips_10":"HA","iso_a2":"HT","iso_a2_eh":"HT","iso_a3":"HTI","iso_a3_eh":"HTI","iso_n3":332,"iso_n3_eh":332,"un_a3":332,"wb_a2":"HT","wb_a3":"HTI","woe_id":23424839,"woe_id_eh":23424839,"woe_note":"Exact WOE match as country","adm0_iso":"HTI","adm0_diff":null,"adm0_tlc":"HTI","adm0_a3_us":"HTI","adm0_a3_fr":"HTI","adm0_a3_ru":"HTI","adm0_a3_es":"HTI","adm0_a3_cn":"HTI","adm0_a3_tw":"HTI","adm0_a3_in":"HTI","adm0_a3_np":"HTI","adm0_a3_pk":"HTI","adm0_a3_de":"HTI","adm0_a3_gb":"HTI","adm0_a3_br":"HTI","adm0_a3_il":"HTI","adm0_a3_ps":"HTI","adm0_a3_sa":"HTI","adm0_a3_eg":"HTI","adm0_a3_ma":"HTI","adm0_a3_pt":"HTI","adm0_a3_ar":"HTI","adm0_a3_jp":"HTI","adm0_a3_ko":"HTI","adm0_a3_vn":"HTI","adm0_a3_tr":"HTI","adm0_a3_id":"HTI","adm0_a3_pl":"HTI","adm0_a3_gr":"HTI","adm0_a3_it":"HTI","adm0_a3_nl":"HTI","adm0_a3_se":"HTI","adm0_a3_bd":"HTI","adm0_a3_ua":"HTI","adm0_a3_un":-99,"adm0_a3_wb":-99,"continent":"North America","region_un":"Americas","wws_geo":"AMER","subregion":"Caribbean","region_wb":"Latin America & Caribbean","name_len":5,"long_len":5,"abbrev_len":5,"tiny":-99,"homepart":1,"min_zoom":0,"min_label":4,"max_label":9,"label_x":-72.224051,"label_y":19.263784,"ne_id":1159320839,"wikidataid":"Q790","name_ar":"هايتي","name_bn":"হাইতি","name_de":"Haiti","name_en":"Haiti","name_es":"Haití","name_fa":"هائیتی","name_fr":"Haïti","name_el":"Αϊτή","name_he":"האיטי","name_hi":"हैती","name_hu":"Haiti","name_id":"Haiti","name_it":"Haiti","name_ja":"ハイチ","name_ko":"아이티","name_nl":"Haïti","name_pl":"Haiti","name_pt":"Haiti","name_ru":"Республика Гаити","name_sv":"Haiti","name_tr":"Haiti","name_uk":"Гаїті","name_ur":"ہیٹی","name_vi":"Haiti","name_zh":"海地","name_zht":"海地","fclass_iso":"Admin-0 country","tlc_diff":null,"fclass_tlc":"Admin-0 country","fclass_us":null,"fclass_fr":null,"fclass_ru":null,"fclass_es":null,"fclass_cn":null,"fclass_tw":null,"fclass_in":null,"fclass_np":null,"fclass_pk":null,"fclass_de":null,"fclass_gb":null,"fclass_br":null,"fclass_il":null,"fclass_ps":null,"fclass_sa":null,"fclass_eg":null,"fclass_ma":null,"fclass_pt":null,"fclass_ar":null,"fclass_jp":null,"fclass_ko":null,"fclass_vn":null,"fclass_tr":null,"fclass_id":null,"fclass_pl":null,"fclass_gr":null,"fclass_it":null,"fclass_nl":null,"fclass_se":null,"fclass_bd":null,"fclass_ua":null,"filename":"HTI.geojson"},{"featurecla":"Admin-0 country","scalerank":1,"labelrank":5,"sovereignt":"Dominican Republic","sov_a3":"DOM","adm0_dif":0,"level":2,"type":"Sovereign country","tlc":1,"admin":"Dominican Republic","adm0_a3":"DOM","geou_dif":0,"geounit":"Dominican Republic","gu_a3":"DOM","su_dif":0,"subunit":"Dominican Republic","su_a3":"DOM","brk_diff":0,"name":"Dominican Rep.","name_long":"Dominican Republic","brk_a3":"DOM","brk_name":"Dominican Rep.","brk_group":null,"abbrev":"Dom. Rep.","postal":"DO","formal_en":"Dominican Republic","formal_fr":null,"name_ciawf":"Dominican Republic","note_adm0":null,"note_brk":null,"name_sort":"Dominican Republic","name_alt":null,"mapcolor7":5,"mapcolor8":2,"mapcolor9":5,"mapcolor13":7,"pop_est":10738958,"pop_rank":14,"pop_year":2019,"gdp_md":88941,"gdp_year":2019,"economy":"6. Developing region","income_grp":"3. Upper middle income","fips_10":"DR","iso_a2":"DO","iso_a2_eh":"DO","iso_a3":"DOM","iso_a3_eh":"DOM","iso_n3":214,"iso_n3_eh":214,"un_a3":214,"wb_a2":"DO","wb_a3":"DOM","woe_id":23424800,"woe_id_eh":23424800,"woe_note":"Exact WOE match as country","adm0_iso":"DOM","adm0_diff":null,"adm0_tlc":"DOM","adm0_a3_us":"DOM","adm0_a3_fr":"DOM","adm0_a3_ru":"DOM","adm0_a3_es":"DOM","adm0_a3_cn":"DOM","adm0_a3_tw":"DOM","adm0_a3_in":"DOM","adm0_a3_np":"DOM","adm0_a3_pk":"DOM","adm0_a3_de":"DOM","adm0_a3_gb":"DOM","adm0_a3_br":"DOM","adm0_a3_il":"DOM","adm0_a3_ps":"DOM","adm0_a3_sa":"DOM","adm0_a3_eg":"DOM","adm0_a3_ma":"DOM","adm0_a3_pt":"DOM","adm0_a3_ar":"DOM","adm0_a3_jp":"DOM","adm0_a3_ko":"DOM","adm0_a3_vn":"DOM","adm0_a3_tr":"DOM","adm0_a3_id":"DOM","adm0_a3_pl":"DOM","adm0_a3_gr":"DOM","adm0_a3_it":"DOM","adm0_a3_nl":"DOM","adm0_a3_se":"DOM","adm0_a3_bd":"DOM","adm0_a3_ua":"DOM","adm0_a3_un":-99,"adm0_a3_wb":-99,"continent":"North America","region_un":"Americas","wws_geo":"AMER","subregion":"Caribbean","region_wb":"Latin America & Caribbean","name_len":14,"long_len":18,"abbrev_len":9,"tiny":-99,"homepart":1,"min_zoom":0,"min_label":4.5,"max_label":9.5,"label_x":-70.653998,"label_y":19.104137,"ne_id":1159320563,"wikidataid":"Q786","name_ar":"جمهورية الدومينيكان","name_bn":"ডোমিনিকান প্রজাতন্ত্র","name_de":"Dominikanische Republik","name_en":"Dominican Republic","name_es":"República Dominicana","name_fa":"جمهوری دومینیکن","name_fr":"République dominicaine","name_el":"Δομινικανή Δημοκρατία","name_he":"הרפובליקה הדומיניקנית","name_hi":"डोमिनिकन गणराज्य","name_hu":"Dominikai Köztársaság","name_id":"Republik Dominika","name_it":"Repubblica Dominicana","name_ja":"ドミニカ共和国","name_ko":"도미니카 공화국","name_nl":"Dominicaanse Republiek","name_pl":"Dominikana","name_pt":"República Dominicana","name_ru":"Доминиканская Республика","name_sv":"Dominikanska republiken","name_tr":"Dominik Cumhuriyeti","name_uk":"Домініканська Республіка","name_ur":"جمہوریہ ڈومینیکن","name_vi":"Cộng hòa Dominica","name_zh":"多米尼加","name_zht":"多明尼加","fclass_iso":"Admin-0 country","tlc_diff":null,"fclass_tlc":"Admin-0 country","fclass_us":null,"fclass_fr":null,"fclass_ru":null,"fclass_es":null,"fclass_cn":null,"fclass_tw":null,"fclass_in":null,"fclass_np":null,"fclass_pk":null,"fclass_de":null,"fclass_gb":null,"fclass_br":null,"fclass_il":null,"fclass_ps":null,"fclass_sa":null,"fclass_eg":null,"fclass_ma":null,"fclass_pt":null,"fclass_ar":null,"fclass_jp":null,"fclass_ko":null,"fclass_vn":null,"fclass_tr":null,"fclass_id":null,"fclass_pl":null,"fclass_gr":null,"fclass_it":null,"fclass_nl":null,"fclass_se":null,"fclass_bd":null,"fclass_ua":null,"filename":"DOM.geojson"},{"featurecla":"Admin-0 country","scalerank":1,"labelrank":6,"sovereignt":"El Salvador","sov_a3":"SLV","adm0_dif":0,"level":2,"type":"Sovereign country","tlc":1,"admin":"El Salvador","adm0_a3":"SLV","geou_dif":0,"geounit":"El Salvador","gu_a3":"SLV","su_dif":0,"subunit":"El Salvador","su_a3":"SLV","brk_diff":0,"name":"El Salvador","name_long":"El Salvador","brk_a3":"SLV","brk_name":"El Salvador","brk_group":null,"abbrev":"El. S.","postal":"SV","formal_en":"Republic of El Salvador","formal_fr":null,"name_ciawf":"El Salvador","note_adm0":null,"note_brk":null,"name_sort":"El Salvador","name_alt":null,"mapcolor7":1,"mapcolor8":4,"mapcolor9":6,"mapcolor13":8,"pop_est":6453553,"pop_rank":13,"pop_year":2019,"gdp_md":27022,"gdp_year":2019,"economy":"6. Developing region","income_grp":"4. Lower middle income","fips_10":"ES","iso_a2":"SV","iso_a2_eh":"SV","iso_a3":"SLV","iso_a3_eh":"SLV","iso_n3":222,"iso_n3_eh":222,"un_a3":222,"wb_a2":"SV","wb_a3":"SLV","woe_id":23424807,"woe_id_eh":23424807,"woe_note":"Exact WOE match as country","adm0_iso":"SLV","adm0_diff":null,"adm0_tlc":"SLV","adm0_a3_us":"SLV","adm0_a3_fr":"SLV","adm0_a3_ru":"SLV","adm0_a3_es":"SLV","adm0_a3_cn":"SLV","adm0_a3_tw":"SLV","adm0_a3_in":"SLV","adm0_a3_np":"SLV","adm0_a3_pk":"SLV","adm0_a3_de":"SLV","adm0_a3_gb":"SLV","adm0_a3_br":"SLV","adm0_a3_il":"SLV","adm0_a3_ps":"SLV","adm0_a3_sa":"SLV","adm0_a3_eg":"SLV","adm0_a3_ma":"SLV","adm0_a3_pt":"SLV","adm0_a3_ar":"SLV","adm0_a3_jp":"SLV","adm0_a3_ko":"SLV","adm0_a3_vn":"SLV","adm0_a3_tr":"SLV","adm0_a3_id":"SLV","adm0_a3_pl":"SLV","adm0_a3_gr":"SLV","adm0_a3_it":"SLV","adm0_a3_nl":"SLV","adm0_a3_se":"SLV","adm0_a3_bd":"SLV","adm0_a3_ua":"SLV","adm0_a3_un":-99,"adm0_a3_wb":-99,"continent":"North America","region_un":"Americas","wws_geo":"AMER","subregion":"Central America","region_wb":"Latin America & Caribbean","name_len":11,"long_len":11,"abbrev_len":6,"tiny":-99,"homepart":1,"min_zoom":0,"min_label":5,"max_label":10,"label_x":-88.890124,"label_y":13.685371,"ne_id":1159321253,"wikidataid":"Q792","name_ar":"السلفادور","name_bn":"এল সালভাদোর","name_de":"El Salvador","name_en":"El Salvador","name_es":"El Salvador","name_fa":"السالوادور","name_fr":"Salvador","name_el":"Ελ Σαλβαδόρ","name_he":"אל סלוודור","name_hi":"अल साल्वाडोर","name_hu":"Salvador","name_id":"El Salvador","name_it":"El Salvador","name_ja":"エルサルバドル","name_ko":"엘살바도르","name_nl":"El Salvador","name_pl":"Salwador","name_pt":"El Salvador","name_ru":"Сальвадор","name_sv":"El Salvador","name_tr":"El Salvador","name_uk":"Сальвадор","name_ur":"ایل سیلواڈور","name_vi":"El Salvador","name_zh":"萨尔瓦多","name_zht":"薩爾瓦多","fclass_iso":"Admin-0 country","tlc_diff":null,"fclass_tlc":"Admin-0 country","fclass_us":null,"fclass_fr":null,"fclass_ru":null,"fclass_es":null,"fclass_cn":null,"fclass_tw":null,"fclass_in":null,"fclass_np":null,"fclass_pk":null,"fclass_de":null,"fclass_gb":null,"fclass_br":null,"fclass_il":null,"fclass_ps":null,"fclass_sa":null,"fclass_eg":null,"fclass_ma":null,"fclass_pt":null,"fclass_ar":null,"fclass_jp":null,"fclass_ko":null,"fclass_vn":null,"fclass_tr":null,"fclass_id":null,"fclass_pl":null,"fclass_gr":null,"fclass_it":null,"fclass_nl":null,"fclass_se":null,"fclass_bd":null,"fclass_ua":null,"filename":"SLV.geojson"},{"featurecla":"Admin-0 country","scalerank":1,"labelrank":3,"sovereignt":"Guatemala","sov_a3":"GTM","adm0_dif":0,"level":2,"type":"Sovereign country","tlc":1,"admin":"Guatemala","adm0_a3":"GTM","geou_dif":0,"geounit":"Guatemala","gu_a3":"GTM","su_dif":0,"subunit":"Guatemala","su_a3":"GTM","brk_diff":0,"name":"Guatemala","name_long":"Guatemala","brk_a3":"GTM","brk_name":"Guatemala","brk_group":null,"abbrev":"Guat.","postal":"GT","formal_en":"Republic of Guatemala","formal_fr":null,"name_ciawf":"Guatemala","note_adm0":null,"note_brk":null,"name_sort":"Guatemala","name_alt":null,"mapcolor7":3,"mapcolor8":3,"mapcolor9":3,"mapcolor13":6,"pop_est":16604026,"pop_rank":14,"pop_year":2019,"gdp_md":76710,"gdp_year":2019,"economy":"6. Developing region","income_grp":"4. Lower middle income","fips_10":"GT","iso_a2":"GT","iso_a2_eh":"GT","iso_a3":"GTM","iso_a3_eh":"GTM","iso_n3":320,"iso_n3_eh":320,"un_a3":320,"wb_a2":"GT","wb_a3":"GTM","woe_id":23424834,"woe_id_eh":23424834,"woe_note":"Exact WOE match as country","adm0_iso":"GTM","adm0_diff":null,"adm0_tlc":"GTM","adm0_a3_us":"GTM","adm0_a3_fr":"GTM","adm0_a3_ru":"GTM","adm0_a3_es":"GTM","adm0_a3_cn":"GTM","adm0_a3_tw":"GTM","adm0_a3_in":"GTM","adm0_a3_np":"GTM","adm0_a3_pk":"GTM","adm0_a3_de":"GTM","adm0_a3_gb":"GTM","adm0_a3_br":"GTM","adm0_a3_il":"GTM","adm0_a3_ps":"GTM","adm0_a3_sa":"GTM","adm0_a3_eg":"GTM","adm0_a3_ma":"GTM","adm0_a3_pt":"GTM","adm0_a3_ar":"GTM","adm0_a3_jp":"GTM","adm0_a3_ko":"GTM","adm0_a3_vn":"GTM","adm0_a3_tr":"GTM","adm0_a3_id":"GTM","adm0_a3_pl":"GTM","adm0_a3_gr":"GTM","adm0_a3_it":"GTM","adm0_a3_nl":"GTM","adm0_a3_se":"GTM","adm0_a3_bd":"GTM","adm0_a3_ua":"GTM","adm0_a3_un":-99,"adm0_a3_wb":-99,"continent":"North America","region_un":"Americas","wws_geo":"AMER","subregion":"Central America","region_wb":"Latin America & Caribbean","name_len":9,"long_len":9,"abbrev_len":5,"tiny":4,"homepart":1,"min_zoom":0,"min_label":3,"max_label":8,"label_x":-90.497134,"label_y":14.982133,"ne_id":1159320815,"wikidataid":"Q774","name_ar":"غواتيمالا","name_bn":"গুয়াতেমালা","name_de":"Guatemala","name_en":"Guatemala","name_es":"Guatemala","name_fa":"گواتمالا","name_fr":"Guatemala","name_el":"Γουατεμάλα","name_he":"גואטמלה","name_hi":"ग्वाटेमाला","name_hu":"Guatemala","name_id":"Guatemala","name_it":"Guatemala","name_ja":"グアテマラ","name_ko":"과테말라","name_nl":"Guatemala","name_pl":"Gwatemala","name_pt":"Guatemala","name_ru":"Гватемала","name_sv":"Guatemala","name_tr":"Guatemala","name_uk":"Гватемала","name_ur":"گواتیمالا","name_vi":"Guatemala","name_zh":"危地马拉","name_zht":"瓜地馬拉","fclass_iso":"Admin-0 country","tlc_diff":null,"fclass_tlc":"Admin-0 country","fclass_us":null,"fclass_fr":null,"fclass_ru":null,"fclass_es":null,"fclass_cn":null,"fclass_tw":null,"fclass_in":null,"fclass_np":null,"fclass_pk":null,"fclass_de":null,"fclass_gb":null,"fclass_br":null,"fclass_il":null,"fclass_ps":null,"fclass_sa":null,"fclass_eg":null,"fclass_ma":null,"fclass_pt":null,"fclass_ar":null,"fclass_jp":null,"fclass_ko":null,"fclass_vn":null,"fclass_tr":null,"fclass_id":null,"fclass_pl":null,"fclass_gr":null,"fclass_it":null,"fclass_nl":null,"fclass_se":null,"fclass_bd":null,"fclass_ua":null,"filename":"GTM.geojson"},{"featurecla":"Admin-0 country","scalerank":1,"labelrank":3,"sovereignt":"Cuba","sov_a3":"CU1","adm0_dif":1,"level":1,"type":"Sovereignty","tlc":1,"admin":"Cuba","adm0_a3":"CUB","geou_dif":0,"geounit":"Cuba","gu_a3":"CUB","su_dif":0,"subunit":"Cuba","su_a3":"CUB","brk_diff":0,"name":"Cuba","name_long":"Cuba","brk_a3":"CUB","brk_name":"Cuba","brk_group":null,"abbrev":"Cuba","postal":"CU","formal_en":"Republic of Cuba","formal_fr":null,"name_ciawf":"Cuba","note_adm0":null,"note_brk":null,"name_sort":"Cuba","name_alt":null,"mapcolor7":3,"mapcolor8":5,"mapcolor9":3,"mapcolor13":4,"pop_est":11333483,"pop_rank":14,"pop_year":2019,"gdp_md":100023,"gdp_year":2018,"economy":"5. Emerging region: G20","income_grp":"3. Upper middle income","fips_10":"CU","iso_a2":"CU","iso_a2_eh":"CU","iso_a3":"CUB","iso_a3_eh":"CUB","iso_n3":192,"iso_n3_eh":192,"un_a3":192,"wb_a2":"CU","wb_a3":"CUB","woe_id":23424793,"woe_id_eh":23424793,"woe_note":"Exact WOE match as country","adm0_iso":"CUB","adm0_diff":null,"adm0_tlc":"CUB","adm0_a3_us":"CUB","adm0_a3_fr":"CUB","adm0_a3_ru":"CUB","adm0_a3_es":"CUB","adm0_a3_cn":"CUB","adm0_a3_tw":"CUB","adm0_a3_in":"CUB","adm0_a3_np":"CUB","adm0_a3_pk":"CUB","adm0_a3_de":"CUB","adm0_a3_gb":"CUB","adm0_a3_br":"CUB","adm0_a3_il":"CUB","adm0_a3_ps":"CUB","adm0_a3_sa":"CUB","adm0_a3_eg":"CUB","adm0_a3_ma":"CUB","adm0_a3_pt":"CUB","adm0_a3_ar":"CUB","adm0_a3_jp":"CUB","adm0_a3_ko":"CUB","adm0_a3_vn":"CUB","adm0_a3_tr":"CUB","adm0_a3_id":"CUB","adm0_a3_pl":"CUB","adm0_a3_gr":"CUB","adm0_a3_it":"CUB","adm0_a3_nl":"CUB","adm0_a3_se":"CUB","adm0_a3_bd":"CUB","adm0_a3_ua":"CUB","adm0_a3_un":-99,"adm0_a3_wb":-99,"continent":"North America","region_un":"Americas","wws_geo":"AMER","subregion":"Caribbean","region_wb":"Latin America & Caribbean","name_len":4,"long_len":4,"abbrev_len":4,"tiny":-99,"homepart":1,"min_zoom":0,"min_label":2.7,"max_label":8,"label_x":-77.975855,"label_y":21.334024,"ne_id":1159320527,"wikidataid":"Q241","name_ar":"كوبا","name_bn":"কিউবা","name_de":"Kuba","name_en":"Cuba","name_es":"Cuba","name_fa":"کوبا","name_fr":"Cuba","name_el":"Κούβα","name_he":"קובה","name_hi":"क्यूबा","name_hu":"Kuba","name_id":"Kuba","name_it":"Cuba","name_ja":"キューバ","name_ko":"쿠바","name_nl":"Cuba","name_pl":"Kuba","name_pt":"Cuba","name_ru":"Куба","name_sv":"Kuba","name_tr":"Küba","name_uk":"Куба","name_ur":"کیوبا","name_vi":"Cuba","name_zh":"古巴","name_zht":"古巴","fclass_iso":"Admin-0 country","tlc_diff":null,"fclass_tlc":"Admin-0 country","fclass_us":null,"fclass_fr":null,"fclass_ru":null,"fclass_es":null,"fclass_cn":null,"fclass_tw":null,"fclass_in":null,"fclass_np":null,"fclass_pk":null,"fclass_de":null,"fclass_gb":null,"fclass_br":null,"fclass_il":null,"fclass_ps":null,"fclass_sa":null,"fclass_eg":null,"fclass_ma":null,"fclass_pt":null,"fclass_ar":null,"fclass_jp":null,"fclass_ko":null,"fclass_vn":null,"fclass_tr":null,"fclass_id":null,"fclass_pl":null,"fclass_gr":null,"fclass_it":null,"fclass_nl":null,"fclass_se":null,"fclass_bd":null,"fclass_ua":null,"filename":"CUB.geojson"},{"featurecla":"Admin-0 country","scalerank":1,"labelrank":5,"sovereignt":"Honduras","sov_a3":"HND","adm0_dif":0,"level":2,"type":"Sovereign country","tlc":1,"admin":"Honduras","adm0_a3":"HND","geou_dif":0,"geounit":"Honduras","gu_a3":"HND","su_dif":0,"subunit":"Honduras","su_a3":"HND","brk_diff":0,"name":"Honduras","name_long":"Honduras","brk_a3":"HND","brk_name":"Honduras","brk_group":null,"abbrev":"Hond.","postal":"HN","formal_en":"Republic of Honduras","formal_fr":null,"name_ciawf":"Honduras","note_adm0":null,"note_brk":null,"name_sort":"Honduras","name_alt":null,"mapcolor7":2,"mapcolor8":5,"mapcolor9":2,"mapcolor13":5,"pop_est":9746117,"pop_rank":13,"pop_year":2019,"gdp_md":25095,"gdp_year":2019,"economy":"6. Developing region","income_grp":"4. Lower middle income","fips_10":"HO","iso_a2":"HN","iso_a2_eh":"HN","iso_a3":"HND","iso_a3_eh":"HND","iso_n3":340,"iso_n3_eh":340,"un_a3":340,"wb_a2":"HN","wb_a3":"HND","woe_id":23424841,"woe_id_eh":23424841,"woe_note":"Exact WOE match as country","adm0_iso":"HND","adm0_diff":null,"adm0_tlc":"HND","adm0_a3_us":"HND","adm0_a3_fr":"HND","adm0_a3_ru":"HND","adm0_a3_es":"HND","adm0_a3_cn":"HND","adm0_a3_tw":"HND","adm0_a3_in":"HND","adm0_a3_np":"HND","adm0_a3_pk":"HND","adm0_a3_de":"HND","adm0_a3_gb":"HND","adm0_a3_br":"HND","adm0_a3_il":"HND","adm0_a3_ps":"HND","adm0_a3_sa":"HND","adm0_a3_eg":"HND","adm0_a3_ma":"HND","adm0_a3_pt":"HND","adm0_a3_ar":"HND","adm0_a3_jp":"HND","adm0_a3_ko":"HND","adm0_a3_vn":"HND","adm0_a3_tr":"HND","adm0_a3_id":"HND","adm0_a3_pl":"HND","adm0_a3_gr":"HND","adm0_a3_it":"HND","adm0_a3_nl":"HND","adm0_a3_se":"HND","adm0_a3_bd":"HND","adm0_a3_ua":"HND","adm0_a3_un":-99,"adm0_a3_wb":-99,"continent":"North America","region_un":"Americas","wws_geo":"AMER","subregion":"Central America","region_wb":"Latin America & Caribbean","name_len":8,"long_len":8,"abbrev_len":5,"tiny":-99,"homepart":1,"min_zoom":0,"min_label":4.5,"max_label":9.5,"label_x":-86.887604,"label_y":14.794801,"ne_id":1159320827,"wikidataid":"Q783","name_ar":"هندوراس","name_bn":"হন্ডুরাস","name_de":"Honduras","name_en":"Honduras","name_es":"Honduras","name_fa":"هندوراس","name_fr":"Honduras","name_el":"Ονδούρα","name_he":"הונדורס","name_hi":"हौण्डुरस","name_hu":"Honduras","name_id":"Honduras","name_it":"Honduras","name_ja":"ホンジュラス","name_ko":"온두라스","name_nl":"Honduras","name_pl":"Honduras","name_pt":"Honduras","name_ru":"Гондурас","name_sv":"Honduras","name_tr":"Honduras","name_uk":"Гондурас","name_ur":"ہونڈوراس","name_vi":"Honduras","name_zh":"洪都拉斯","name_zht":"宏都拉斯","fclass_iso":"Admin-0 country","tlc_diff":null,"fclass_tlc":"Admin-0 country","fclass_us":null,"fclass_fr":null,"fclass_ru":null,"fclass_es":null,"fclass_cn":null,"fclass_tw":null,"fclass_in":null,"fclass_np":null,"fclass_pk":null,"fclass_de":null,"fclass_gb":null,"fclass_br":null,"fclass_il":null,"fclass_ps":null,"fclass_sa":null,"fclass_eg":null,"fclass_ma":null,"fclass_pt":null,"fclass_ar":null,"fclass_jp":null,"fclass_ko":null,"fclass_vn":null,"fclass_tr":null,"fclass_id":null,"fclass_pl":null,"fclass_gr":null,"fclass_it":null,"fclass_nl":null,"fclass_se":null,"fclass_bd":null,"fclass_ua":null,"filename":"HND.geojson"},{"featurecla":"Admin-0 country","scalerank":1,"labelrank":2,"sovereignt":"United States of America","sov_a3":"US1","adm0_dif":1,"level":2,"type":"Country","tlc":1,"admin":"United States of America","adm0_a3":"USA","geou_dif":0,"geounit":"United States of America","gu_a3":"USA","su_dif":0,"subunit":"United States","su_a3":"USA","brk_diff":0,"name":"United States of America","name_long":"United States","brk_a3":"USA","brk_name":"United States","brk_group":null,"abbrev":"U.S.A.","postal":"US","formal_en":"United States of America","formal_fr":null,"name_ciawf":"United States","note_adm0":null,"note_brk":null,"name_sort":"United States of America","name_alt":null,"mapcolor7":4,"mapcolor8":5,"mapcolor9":1,"mapcolor13":1,"pop_est":328239523,"pop_rank":17,"pop_year":2019,"gdp_md":21433226,"gdp_year":2019,"economy":"1. Developed region: G7","income_grp":"1. High income: OECD","fips_10":"US","iso_a2":"US","iso_a2_eh":"US","iso_a3":"USA","iso_a3_eh":"USA","iso_n3":840,"iso_n3_eh":840,"un_a3":840,"wb_a2":"US","wb_a3":"USA","woe_id":23424977,"woe_id_eh":23424977,"woe_note":"Exact WOE match as country","adm0_iso":"USA","adm0_diff":null,"adm0_tlc":"USA","adm0_a3_us":"USA","adm0_a3_fr":"USA","adm0_a3_ru":"USA","adm0_a3_es":"USA","adm0_a3_cn":"USA","adm0_a3_tw":"USA","adm0_a3_in":"USA","adm0_a3_np":"USA","adm0_a3_pk":"USA","adm0_a3_de":"USA","adm0_a3_gb":"USA","adm0_a3_br":"USA","adm0_a3_il":"USA","adm0_a3_ps":"USA","adm0_a3_sa":"USA","adm0_a3_eg":"USA","adm0_a3_ma":"USA","adm0_a3_pt":"USA","adm0_a3_ar":"USA","adm0_a3_jp":"USA","adm0_a3_ko":"USA","adm0_a3_vn":"USA","adm0_a3_tr":"USA","adm0_a3_id":"USA","adm0_a3_pl":"USA","adm0_a3_gr":"USA","adm0_a3_it":"USA","adm0_a3_nl":"USA","adm0_a3_se":"USA","adm0_a3_bd":"USA","adm0_a3_ua":"USA","adm0_a3_un":-99,"adm0_a3_wb":-99,"continent":"North America","region_un":"Americas","wws_geo":"AMER","subregion":"Northern America","region_wb":"North America","name_len":24,"long_len":13,"abbrev_len":6,"tiny":-99,"homepart":1,"min_zoom":0,"min_label":1.7,"max_label":5.7,"label_x":-97.482602,"label_y":39.538479,"ne_id":1159321369,"wikidataid":"Q30","name_ar":"الولايات المتحدة","name_bn":"মার্কিন যুক্তরাষ্ট্র","name_de":"Vereinigte Staaten","name_en":"United States of America","name_es":"Estados Unidos","name_fa":"ایالات متحده آمریکا","name_fr":"États-Unis","name_el":"Ηνωμένες Πολιτείες Αμερικής","name_he":"ארצות הברית","name_hi":"संयुक्त राज्य अमेरिका","name_hu":"Amerikai Egyesült Államok","name_id":"Amerika Serikat","name_it":"Stati Uniti d'America","name_ja":"アメリカ合衆国","name_ko":"미국","name_nl":"Verenigde Staten van Amerika","name_pl":"Stany Zjednoczone","name_pt":"Estados Unidos","name_ru":"США","name_sv":"USA","name_tr":"Amerika Birleşik Devletleri","name_uk":"Сполучені Штати Америки","name_ur":"ریاستہائے متحدہ امریکا","name_vi":"Hoa Kỳ","name_zh":"美国","name_zht":"美國","fclass_iso":"Admin-0 country","tlc_diff":null,"fclass_tlc":"Admin-0 country","fclass_us":null,"fclass_fr":null,"fclass_ru":null,"fclass_es":null,"fclass_cn":null,"fclass_tw":null,"fclass_in":null,"fclass_np":null,"fclass_pk":null,"fclass_de":null,"fclass_gb":null,"fclass_br":null,"fclass_il":null,"fclass_ps":null,"fclass_sa":null,"fclass_eg":null,"fclass_ma":null,"fclass_pt":null,"fclass_ar":null,"fclass_jp":null,"fclass_ko":null,"fclass_vn":null,"fclass_tr":null,"fclass_id":null,"fclass_pl":null,"fclass_gr":null,"fclass_it":null,"fclass_nl":null,"fclass_se":null,"fclass_bd":null,"fclass_ua":null,"filename":"USA.geojson"},{"featurecla":"Admin-0 country","scalerank":1,"labelrank":2,"sovereignt":"Canada","sov_a3":"CAN","adm0_dif":0,"level":2,"type":"Sovereign country","tlc":1,"admin":"Canada","adm0_a3":"CAN","geou_dif":0,"geounit":"Canada","gu_a3":"CAN","su_dif":0,"subunit":"Canada","su_a3":"CAN","brk_diff":0,"name":"Canada","name_long":"Canada","brk_a3":"CAN","brk_name":"Canada","brk_group":null,"abbrev":"Can.","postal":"CA","formal_en":"Canada","formal_fr":null,"name_ciawf":"Canada","note_adm0":null,"note_brk":null,"name_sort":"Canada","name_alt":null,"mapcolor7":6,"mapcolor8":6,"mapcolor9":2,"mapcolor13":2,"pop_est":37589262,"pop_rank":15,"pop_year":2019,"gdp_md":1736425,"gdp_year":2019,"economy":"1. Developed region: G7","income_grp":"1. High income: OECD","fips_10":"CA","iso_a2":"CA","iso_a2_eh":"CA","iso_a3":"CAN","iso_a3_eh":"CAN","iso_n3":124,"iso_n3_eh":124,"un_a3":124,"wb_a2":"CA","wb_a3":"CAN","woe_id":23424775,"woe_id_eh":23424775,"woe_note":"Exact WOE match as country","adm0_iso":"CAN","adm0_diff":null,"adm0_tlc":"CAN","adm0_a3_us":"CAN","adm0_a3_fr":"CAN","adm0_a3_ru":"CAN","adm0_a3_es":"CAN","adm0_a3_cn":"CAN","adm0_a3_tw":"CAN","adm0_a3_in":"CAN","adm0_a3_np":"CAN","adm0_a3_pk":"CAN","adm0_a3_de":"CAN","adm0_a3_gb":"CAN","adm0_a3_br":"CAN","adm0_a3_il":"CAN","adm0_a3_ps":"CAN","adm0_a3_sa":"CAN","adm0_a3_eg":"CAN","adm0_a3_ma":"CAN","adm0_a3_pt":"CAN","adm0_a3_ar":"CAN","adm0_a3_jp":"CAN","adm0_a3_ko":"CAN","adm0_a3_vn":"CAN","adm0_a3_tr":"CAN","adm0_a3_id":"CAN","adm0_a3_pl":"CAN","adm0_a3_gr":"CAN","adm0_a3_it":"CAN","adm0_a3_nl":"CAN","adm0_a3_se":"CAN","adm0_a3_bd":"CAN","adm0_a3_ua":"CAN","adm0_a3_un":-99,"adm0_a3_wb":-99,"continent":"North America","region_un":"Americas","wws_geo":"AMER","subregion":"Northern America","region_wb":"North America","name_len":6,"long_len":6,"abbrev_len":4,"tiny":-99,"homepart":1,"min_zoom":0,"min_label":1.7,"max_label":5.7,"label_x":-101.9107,"label_y":60.324287,"ne_id":1159320467,"wikidataid":"Q16","name_ar":"كندا","name_bn":"কানাডা","name_de":"Kanada","name_en":"Canada","name_es":"Canadá","name_fa":"کانادا","name_fr":"Canada","name_el":"Καναδάς","name_he":"קנדה","name_hi":"कनाडा","name_hu":"Kanada","name_id":"Kanada","name_it":"Canada","name_ja":"カナダ","name_ko":"캐나다","name_nl":"Canada","name_pl":"Kanada","name_pt":"Canadá","name_ru":"Канада","name_sv":"Kanada","name_tr":"Kanada","name_uk":"Канада","name_ur":"کینیڈا","name_vi":"Canada","name_zh":"加拿大","name_zht":"加拿大","fclass_iso":"Admin-0 country","tlc_diff":null,"fclass_tlc":"Admin-0 country","fclass_us":null,"fclass_fr":null,"fclass_ru":null,"fclass_es":null,"fclass_cn":null,"fclass_tw":null,"fclass_in":null,"fclass_np":null,"fclass_pk":null,"fclass_de":null,"fclass_gb":null,"fclass_br":null,"fclass_il":null,"fclass_ps":null,"fclass_sa":null,"fclass_eg":null,"fclass_ma":null,"fclass_pt":null,"fclass_ar":null,"fclass_jp":null,"fclass_ko":null,"fclass_vn":null,"fclass_tr":null,"fclass_id":null,"fclass_pl":null,"fclass_gr":null,"fclass_it":null,"fclass_nl":null,"fclass_se":null,"fclass_bd":null,"fclass_ua":null,"filename":"CAN.geojson"},{"featurecla":"Admin-0 country","scalerank":1,"labelrank":2,"sovereignt":"Mexico","sov_a3":"MEX","adm0_dif":0,"level":2,"type":"Sovereign country","tlc":1,"admin":"Mexico","adm0_a3":"MEX","geou_dif":0,"geounit":"Mexico","gu_a3":"MEX","su_dif":0,"subunit":"Mexico","su_a3":"MEX","brk_diff":0,"name":"Mexico","name_long":"Mexico","brk_a3":"MEX","brk_name":"Mexico","brk_group":null,"abbrev":"Mex.","postal":"MX","formal_en":"United Mexican States","formal_fr":null,"name_ciawf":"Mexico","note_adm0":null,"note_brk":null,"name_sort":"Mexico","name_alt":null,"mapcolor7":6,"mapcolor8":1,"mapcolor9":7,"mapcolor13":3,"pop_est":127575529,"pop_rank":17,"pop_year":2019,"gdp_md":1268870,"gdp_year":2019,"economy":"4. Emerging region: MIKT","income_grp":"3. Upper middle income","fips_10":"MX","iso_a2":"MX","iso_a2_eh":"MX","iso_a3":"MEX","iso_a3_eh":"MEX","iso_n3":484,"iso_n3_eh":484,"un_a3":484,"wb_a2":"MX","wb_a3":"MEX","woe_id":23424900,"woe_id_eh":23424900,"woe_note":"Exact WOE match as country","adm0_iso":"MEX","adm0_diff":null,"adm0_tlc":"MEX","adm0_a3_us":"MEX","adm0_a3_fr":"MEX","adm0_a3_ru":"MEX","adm0_a3_es":"MEX","adm0_a3_cn":"MEX","adm0_a3_tw":"MEX","adm0_a3_in":"MEX","adm0_a3_np":"MEX","adm0_a3_pk":"MEX","adm0_a3_de":"MEX","adm0_a3_gb":"MEX","adm0_a3_br":"MEX","adm0_a3_il":"MEX","adm0_a3_ps":"MEX","adm0_a3_sa":"MEX","adm0_a3_eg":"MEX","adm0_a3_ma":"MEX","adm0_a3_pt":"MEX","adm0_a3_ar":"MEX","adm0_a3_jp":"MEX","adm0_a3_ko":"MEX","adm0_a3_vn":"MEX","adm0_a3_tr":"MEX","adm0_a3_id":"MEX","adm0_a3_pl":"MEX","adm0_a3_gr":"MEX","adm0_a3_it":"MEX","adm0_a3_nl":"MEX","adm0_a3_se":"MEX","adm0_a3_bd":"MEX","adm0_a3_ua":"MEX","adm0_a3_un":-99,"adm0_a3_wb":-99,"continent":"North America","region_un":"Americas","wws_geo":"AMER","subregion":"Central America","region_wb":"Latin America & Caribbean","name_len":6,"long_len":6,"abbrev_len":4,"tiny":-99,"homepart":1,"min_zoom":0,"min_label":2,"max_label":6.7,"label_x":-102.289448,"label_y":23.919988,"ne_id":1159321055,"wikidataid":"Q96","name_ar":"المكسيك","name_bn":"মেক্সিকো","name_de":"Mexiko","name_en":"Mexico","name_es":"México","name_fa":"مکزیک","name_fr":"Mexique","name_el":"Μεξικό","name_he":"מקסיקו","name_hi":"मेक्सिको","name_hu":"Mexikó","name_id":"Meksiko","name_it":"Messico","name_ja":"メキシコ","name_ko":"멕시코","name_nl":"Mexico","name_pl":"Meksyk","name_pt":"México","name_ru":"Мексика","name_sv":"Mexiko","name_tr":"Meksika","name_uk":"Мексика","name_ur":"میکسیکو","name_vi":"México","name_zh":"墨西哥","name_zht":"墨西哥","fclass_iso":"Admin-0 country","tlc_diff":null,"fclass_tlc":"Admin-0 country","fclass_us":null,"fclass_fr":null,"fclass_ru":null,"fclass_es":null,"fclass_cn":null,"fclass_tw":null,"fclass_in":null,"fclass_np":null,"fclass_pk":null,"fclass_de":null,"fclass_gb":null,"fclass_br":null,"fclass_il":null,"fclass_ps":null,"fclass_sa":null,"fclass_eg":null,"fclass_ma":null,"fclass_pt":null,"fclass_ar":null,"fclass_jp":null,"fclass_ko":null,"fclass_vn":null,"fclass_tr":null,"fclass_id":null,"fclass_pl":null,"fclass_gr":null,"fclass_it":null,"fclass_nl":null,"fclass_se":null,"fclass_bd":null,"fclass_ua":null,"filename":"MEX.geojson"},{"featurecla":"Admin-0 country","scalerank":1,"labelrank":6,"sovereignt":"Belize","sov_a3":"BLZ","adm0_dif":0,"level":2,"type":"Sovereign country","tlc":1,"admin":"Belize","adm0_a3":"BLZ","geou_dif":0,"geounit":"Belize","gu_a3":"BLZ","su_dif":0,"subunit":"Belize","su_a3":"BLZ","brk_diff":0,"name":"Belize","name_long":"Belize","brk_a3":"BLZ","brk_name":"Belize","brk_group":null,"abbrev":"Belize","postal":"BZ","formal_en":"Belize","formal_fr":null,"name_ciawf":"Belize","note_adm0":null,"note_brk":null,"name_sort":"Belize","name_alt":null,"mapcolor7":1,"mapcolor8":4,"mapcolor9":5,"mapcolor13":7,"pop_est":390353,"pop_rank":10,"pop_year":2019,"gdp_md":1879,"gdp_year":2019,"economy":"6. Developing region","income_grp":"4. Lower middle income","fips_10":"BH","iso_a2":"BZ","iso_a2_eh":"BZ","iso_a3":"BLZ","iso_a3_eh":"BLZ","iso_n3":"084","iso_n3_eh":"084","un_a3":"084","wb_a2":"BZ","wb_a3":"BLZ","woe_id":23424760,"woe_id_eh":23424760,"woe_note":"Exact WOE match as country","adm0_iso":"BLZ","adm0_diff":null,"adm0_tlc":"BLZ","adm0_a3_us":"BLZ","adm0_a3_fr":"BLZ","adm0_a3_ru":"BLZ","adm0_a3_es":"BLZ","adm0_a3_cn":"BLZ","adm0_a3_tw":"BLZ","adm0_a3_in":"BLZ","adm0_a3_np":"BLZ","adm0_a3_pk":"BLZ","adm0_a3_de":"BLZ","adm0_a3_gb":"BLZ","adm0_a3_br":"BLZ","adm0_a3_il":"BLZ","adm0_a3_ps":"BLZ","adm0_a3_sa":"BLZ","adm0_a3_eg":"BLZ","adm0_a3_ma":"BLZ","adm0_a3_pt":"BLZ","adm0_a3_ar":"BLZ","adm0_a3_jp":"BLZ","adm0_a3_ko":"BLZ","adm0_a3_vn":"BLZ","adm0_a3_tr":"BLZ","adm0_a3_id":"BLZ","adm0_a3_pl":"BLZ","adm0_a3_gr":"BLZ","adm0_a3_it":"BLZ","adm0_a3_nl":"BLZ","adm0_a3_se":"BLZ","adm0_a3_bd":"BLZ","adm0_a3_ua":"BLZ","adm0_a3_un":-99,"adm0_a3_wb":-99,"continent":"North America","region_un":"Americas","wws_geo":"AMER","subregion":"Central America","region_wb":"Latin America & Caribbean","name_len":6,"long_len":6,"abbrev_len":6,"tiny":-99,"homepart":1,"min_zoom":0,"min_label":5,"max_label":10,"label_x":-88.712962,"label_y":17.202068,"ne_id":1159320431,"wikidataid":"Q242","name_ar":"بليز","name_bn":"বেলিজ","name_de":"Belize","name_en":"Belize","name_es":"Belice","name_fa":"بلیز","name_fr":"Belize","name_el":"Μπελίζ","name_he":"בליז","name_hi":"बेलीज़","name_hu":"Belize","name_id":"Belize","name_it":"Belize","name_ja":"ベリーズ","name_ko":"벨리즈","name_nl":"Belize","name_pl":"Belize","name_pt":"Belize","name_ru":"Белиз","name_sv":"Belize","name_tr":"Belize","name_uk":"Беліз","name_ur":"بیلیز","name_vi":"Belize","name_zh":"伯利兹","name_zht":"貝里斯","fclass_iso":"Admin-0 country","tlc_diff":null,"fclass_tlc":"Admin-0 country","fclass_us":null,"fclass_fr":null,"fclass_ru":null,"fclass_es":null,"fclass_cn":null,"fclass_tw":null,"fclass_in":null,"fclass_np":null,"fclass_pk":null,"fclass_de":null,"fclass_gb":null,"fclass_br":null,"fclass_il":null,"fclass_ps":null,"fclass_sa":null,"fclass_eg":null,"fclass_ma":null,"fclass_pt":null,"fclass_ar":null,"fclass_jp":null,"fclass_ko":null,"fclass_vn":null,"fclass_tr":null,"fclass_id":null,"fclass_pl":null,"fclass_gr":null,"fclass_it":null,"fclass_nl":null,"fclass_se":null,"fclass_bd":null,"fclass_ua":null,"filename":"BLZ.geojson"},{"featurecla":"Admin-0 country","scalerank":1,"labelrank":4,"sovereignt":"Panama","sov_a3":"PAN","adm0_dif":0,"level":2,"type":"Sovereign country","tlc":1,"admin":"Panama","adm0_a3":"PAN","geou_dif":0,"geounit":"Panama","gu_a3":"PAN","su_dif":0,"subunit":"Panama","su_a3":"PAN","brk_diff":0,"name":"Panama","name_long":"Panama","brk_a3":"PAN","brk_name":"Panama","brk_group":null,"abbrev":"Pan.","postal":"PA","formal_en":"Republic of Panama","formal_fr":null,"name_ciawf":"Panama","note_adm0":null,"note_brk":null,"name_sort":"Panama","name_alt":null,"mapcolor7":4,"mapcolor8":4,"mapcolor9":6,"mapcolor13":3,"pop_est":4246439,"pop_rank":12,"pop_year":2019,"gdp_md":66800,"gdp_year":2019,"economy":"6. Developing region","income_grp":"3. Upper middle income","fips_10":"PM","iso_a2":"PA","iso_a2_eh":"PA","iso_a3":"PAN","iso_a3_eh":"PAN","iso_n3":591,"iso_n3_eh":591,"un_a3":591,"wb_a2":"PA","wb_a3":"PAN","woe_id":23424924,"woe_id_eh":23424924,"woe_note":"Exact WOE match as country","adm0_iso":"PAN","adm0_diff":null,"adm0_tlc":"PAN","adm0_a3_us":"PAN","adm0_a3_fr":"PAN","adm0_a3_ru":"PAN","adm0_a3_es":"PAN","adm0_a3_cn":"PAN","adm0_a3_tw":"PAN","adm0_a3_in":"PAN","adm0_a3_np":"PAN","adm0_a3_pk":"PAN","adm0_a3_de":"PAN","adm0_a3_gb":"PAN","adm0_a3_br":"PAN","adm0_a3_il":"PAN","adm0_a3_ps":"PAN","adm0_a3_sa":"PAN","adm0_a3_eg":"PAN","adm0_a3_ma":"PAN","adm0_a3_pt":"PAN","adm0_a3_ar":"PAN","adm0_a3_jp":"PAN","adm0_a3_ko":"PAN","adm0_a3_vn":"PAN","adm0_a3_tr":"PAN","adm0_a3_id":"PAN","adm0_a3_pl":"PAN","adm0_a3_gr":"PAN","adm0_a3_it":"PAN","adm0_a3_nl":"PAN","adm0_a3_se":"PAN","adm0_a3_bd":"PAN","adm0_a3_ua":"PAN","adm0_a3_un":-99,"adm0_a3_wb":-99,"continent":"North America","region_un":"Americas","wws_geo":"AMER","subregion":"Central America","region_wb":"Latin America & Caribbean","name_len":6,"long_len":6,"abbrev_len":4,"tiny":-99,"homepart":1,"min_zoom":0,"min_label":4,"max_label":9,"label_x":-80.352106,"label_y":8.72198,"ne_id":1159321161,"wikidataid":"Q804","name_ar":"بنما","name_bn":"পানামা","name_de":"Panama","name_en":"Panama","name_es":"Panamá","name_fa":"پاناما","name_fr":"Panama","name_el":"Παναμάς","name_he":"פנמה","name_hi":"पनामा","name_hu":"Panama","name_id":"Panama","name_it":"Panama","name_ja":"パナマ","name_ko":"파나마","name_nl":"Panama","name_pl":"Panama","name_pt":"Panamá","name_ru":"Панама","name_sv":"Panama","name_tr":"Panama","name_uk":"Панама","name_ur":"پاناما","name_vi":"Panama","name_zh":"巴拿马","name_zht":"巴拿馬","fclass_iso":"Admin-0 country","tlc_diff":null,"fclass_tlc":"Admin-0 country","fclass_us":null,"fclass_fr":null,"fclass_ru":null,"fclass_es":null,"fclass_cn":null,"fclass_tw":null,"fclass_in":null,"fclass_np":null,"fclass_pk":null,"fclass_de":null,"fclass_gb":null,"fclass_br":null,"fclass_il":null,"fclass_ps":null,"fclass_sa":null,"fclass_eg":null,"fclass_ma":null,"fclass_pt":null,"fclass_ar":null,"fclass_jp":null,"fclass_ko":null,"fclass_vn":null,"fclass_tr":null,"fclass_id":null,"fclass_pl":null,"fclass_gr":null,"fclass_it":null,"fclass_nl":null,"fclass_se":null,"fclass_bd":null,"fclass_ua":null,"filename":"PAN.geojson"},{"featurecla":"Admin-0 country","scalerank":1,"labelrank":3,"sovereignt":"Denmark","sov_a3":"DN1","adm0_dif":1,"level":2,"type":"Country","tlc":1,"admin":"Greenland","adm0_a3":"GRL","geou_dif":0,"geounit":"Greenland","gu_a3":"GRL","su_dif":0,"subunit":"Greenland","su_a3":"GRL","brk_diff":0,"name":"Greenland","name_long":"Greenland","brk_a3":"GRL","brk_name":"Greenland","brk_group":null,"abbrev":"Grlnd.","postal":"GL","formal_en":"Greenland","formal_fr":null,"name_ciawf":"Greenland","note_adm0":"Den.","note_brk":null,"name_sort":"Greenland","name_alt":null,"mapcolor7":4,"mapcolor8":1,"mapcolor9":3,"mapcolor13":12,"pop_est":56225,"pop_rank":8,"pop_year":2019,"gdp_md":3051,"gdp_year":2018,"economy":"2. Developed region: nonG7","income_grp":"2. High income: nonOECD","fips_10":"GL","iso_a2":"GL","iso_a2_eh":"GL","iso_a3":"GRL","iso_a3_eh":"GRL","iso_n3":304,"iso_n3_eh":304,"un_a3":304,"wb_a2":"GL","wb_a3":"GRL","woe_id":23424828,"woe_id_eh":23424828,"woe_note":"Exact WOE match as country","adm0_iso":"GRL","adm0_diff":null,"adm0_tlc":"GRL","adm0_a3_us":"GRL","adm0_a3_fr":"GRL","adm0_a3_ru":"GRL","adm0_a3_es":"GRL","adm0_a3_cn":"GRL","adm0_a3_tw":"GRL","adm0_a3_in":"GRL","adm0_a3_np":"GRL","adm0_a3_pk":"GRL","adm0_a3_de":"GRL","adm0_a3_gb":"GRL","adm0_a3_br":"GRL","adm0_a3_il":"GRL","adm0_a3_ps":"GRL","adm0_a3_sa":"GRL","adm0_a3_eg":"GRL","adm0_a3_ma":"GRL","adm0_a3_pt":"GRL","adm0_a3_ar":"GRL","adm0_a3_jp":"GRL","adm0_a3_ko":"GRL","adm0_a3_vn":"GRL","adm0_a3_tr":"GRL","adm0_a3_id":"GRL","adm0_a3_pl":"GRL","adm0_a3_gr":"GRL","adm0_a3_it":"GRL","adm0_a3_nl":"GRL","adm0_a3_se":"GRL","adm0_a3_bd":"GRL","adm0_a3_ua":"GRL","adm0_a3_un":-99,"adm0_a3_wb":-99,"continent":"North America","region_un":"Americas","wws_geo":"AMER","subregion":"Northern America","region_wb":"Europe & Central Asia","name_len":9,"long_len":9,"abbrev_len":6,"tiny":-99,"homepart":-99,"min_zoom":0,"min_label":1.7,"max_label":6.7,"label_x":-39.335251,"label_y":74.319387,"ne_id":1159320551,"wikidataid":"Q223","name_ar":"جرينلاند","name_bn":"গ্রিনল্যান্ড","name_de":"Grönland","name_en":"Greenland","name_es":"Groenlandia","name_fa":"گرینلند","name_fr":"Groenland","name_el":"Γροιλανδία","name_he":"גרינלנד","name_hi":"ग्रीनलैण्ड","name_hu":"Grönland","name_id":"Greenland","name_it":"Groenlandia","name_ja":"グリーンランド","name_ko":"그린란드","name_nl":"Groenland","name_pl":"Grenlandia","name_pt":"Groenlândia","name_ru":"Гренландия","name_sv":"Grönland","name_tr":"Grönland","name_uk":"Гренландія","name_ur":"گرین لینڈ","name_vi":"Greenland","name_zh":"格陵兰","name_zht":"格陵蘭","fclass_iso":"Admin-0 dependency","tlc_diff":null,"fclass_tlc":"Admin-0 dependency","fclass_us":null,"fclass_fr":null,"fclass_ru":null,"fclass_es":null,"fclass_cn":null,"fclass_tw":null,"fclass_in":null,"fclass_np":null,"fclass_pk":null,"fclass_de":null,"fclass_gb":null,"fclass_br":null,"fclass_il":null,"fclass_ps":null,"fclass_sa":null,"fclass_eg":null,"fclass_ma":null,"fclass_pt":null,"fclass_ar":null,"fclass_jp":null,"fclass_ko":null,"fclass_vn":null,"fclass_tr":null,"fclass_id":null,"fclass_pl":null,"fclass_gr":null,"fclass_it":null,"fclass_nl":null,"fclass_se":null,"fclass_bd":null,"fclass_ua":null,"filename":"GRL.geojson"},{"featurecla":"Admin-0 country","scalerank":1,"labelrank":4,"sovereignt":"The Bahamas","sov_a3":"BHS","adm0_dif":0,"level":2,"type":"Sovereign country","tlc":1,"admin":"The Bahamas","adm0_a3":"BHS","geou_dif":0,"geounit":"The Bahamas","gu_a3":"BHS","su_dif":0,"subunit":"The Bahamas","su_a3":"BHS","brk_diff":0,"name":"Bahamas","name_long":"Bahamas","brk_a3":"BHS","brk_name":"Bahamas","brk_group":null,"abbrev":"Bhs.","postal":"BS","formal_en":"Commonwealth of the Bahamas","formal_fr":null,"name_ciawf":"Bahamas, The","note_adm0":null,"note_brk":null,"name_sort":"Bahamas, The","name_alt":null,"mapcolor7":1,"mapcolor8":1,"mapcolor9":2,"mapcolor13":5,"pop_est":389482,"pop_rank":10,"pop_year":2019,"gdp_md":13578,"gdp_year":2019,"economy":"6. Developing region","income_grp":"2. High income: nonOECD","fips_10":"BF","iso_a2":"BS","iso_a2_eh":"BS","iso_a3":"BHS","iso_a3_eh":"BHS","iso_n3":"044","iso_n3_eh":"044","un_a3":"044","wb_a2":"BS","wb_a3":"BHS","woe_id":23424758,"woe_id_eh":23424758,"woe_note":"Exact WOE match as country","adm0_iso":"BHS","adm0_diff":null,"adm0_tlc":"BHS","adm0_a3_us":"BHS","adm0_a3_fr":"BHS","adm0_a3_ru":"BHS","adm0_a3_es":"BHS","adm0_a3_cn":"BHS","adm0_a3_tw":"BHS","adm0_a3_in":"BHS","adm0_a3_np":"BHS","adm0_a3_pk":"BHS","adm0_a3_de":"BHS","adm0_a3_gb":"BHS","adm0_a3_br":"BHS","adm0_a3_il":"BHS","adm0_a3_ps":"BHS","adm0_a3_sa":"BHS","adm0_a3_eg":"BHS","adm0_a3_ma":"BHS","adm0_a3_pt":"BHS","adm0_a3_ar":"BHS","adm0_a3_jp":"BHS","adm0_a3_ko":"BHS","adm0_a3_vn":"BHS","adm0_a3_tr":"BHS","adm0_a3_id":"BHS","adm0_a3_pl":"BHS","adm0_a3_gr":"BHS","adm0_a3_it":"BHS","adm0_a3_nl":"BHS","adm0_a3_se":"BHS","adm0_a3_bd":"BHS","adm0_a3_ua":"BHS","adm0_a3_un":-99,"adm0_a3_wb":-99,"continent":"North America","region_un":"Americas","wws_geo":"AMER","subregion":"Caribbean","region_wb":"Latin America & Caribbean","name_len":7,"long_len":7,"abbrev_len":4,"tiny":-99,"homepart":1,"min_zoom":0,"min_label":4,"max_label":9,"label_x":-77.146688,"label_y":26.401789,"ne_id":1159320415,"wikidataid":"Q778","name_ar":"باهاماس","name_bn":"বাহামা দ্বীপপুঞ্জ","name_de":"Bahamas","name_en":"The Bahamas","name_es":"Bahamas","name_fa":"باهاما","name_fr":"Bahamas","name_el":"Μπαχάμες","name_he":"איי בהאמה","name_hi":"बहामास","name_hu":"Bahama-szigetek","name_id":"Bahama","name_it":"Bahamas","name_ja":"バハマ","name_ko":"바하마","name_nl":"Bahama's","name_pl":"Bahamy","name_pt":"Bahamas","name_ru":"Багамские Острова","name_sv":"Bahamas","name_tr":"Bahamalar","name_uk":"Багамські Острови","name_ur":"بہاماس","name_vi":"Bahamas","name_zh":"巴哈马","name_zht":"巴哈馬","fclass_iso":"Admin-0 country","tlc_diff":null,"fclass_tlc":"Admin-0 country","fclass_us":null,"fclass_fr":null,"fclass_ru":null,"fclass_es":null,"fclass_cn":null,"fclass_tw":null,"fclass_in":null,"fclass_np":null,"fclass_pk":null,"fclass_de":null,"fclass_gb":null,"fclass_br":null,"fclass_il":null,"fclass_ps":null,"fclass_sa":null,"fclass_eg":null,"fclass_ma":null,"fclass_pt":null,"fclass_ar":null,"fclass_jp":null,"fclass_ko":null,"fclass_vn":null,"fclass_tr":null,"fclass_id":null,"fclass_pl":null,"fclass_gr":null,"fclass_it":null,"fclass_nl":null,"fclass_se":null,"fclass_bd":null,"fclass_ua":null,"filename":"BHS.geojson"},{"featurecla":"Admin-0 country","scalerank":1,"labelrank":5,"sovereignt":"Trinidad and Tobago","sov_a3":"TTO","adm0_dif":0,"level":2,"type":"Sovereign country","tlc":1,"admin":"Trinidad and Tobago","adm0_a3":"TTO","geou_dif":0,"geounit":"Trinidad and Tobago","gu_a3":"TTO","su_dif":0,"subunit":"Trinidad and Tobago","su_a3":"TTO","brk_diff":0,"name":"Trinidad and Tobago","name_long":"Trinidad and Tobago","brk_a3":"TTO","brk_name":"Trinidad and Tobago","brk_group":null,"abbrev":"Tr.T.","postal":"TT","formal_en":"Republic of Trinidad and Tobago","formal_fr":null,"name_ciawf":"Trinidad and Tobago","note_adm0":null,"note_brk":null,"name_sort":"Trinidad and Tobago","name_alt":null,"mapcolor7":5,"mapcolor8":6,"mapcolor9":2,"mapcolor13":5,"pop_est":1394973,"pop_rank":12,"pop_year":2019,"gdp_md":24269,"gdp_year":2019,"economy":"6. Developing region","income_grp":"2. High income: nonOECD","fips_10":"TD","iso_a2":"TT","iso_a2_eh":"TT","iso_a3":"TTO","iso_a3_eh":"TTO","iso_n3":780,"iso_n3_eh":780,"un_a3":780,"wb_a2":"TT","wb_a3":"TTO","woe_id":23424958,"woe_id_eh":23424958,"woe_note":"Exact WOE match as country","adm0_iso":"TTO","adm0_diff":null,"adm0_tlc":"TTO","adm0_a3_us":"TTO","adm0_a3_fr":"TTO","adm0_a3_ru":"TTO","adm0_a3_es":"TTO","adm0_a3_cn":"TTO","adm0_a3_tw":"TTO","adm0_a3_in":"TTO","adm0_a3_np":"TTO","adm0_a3_pk":"TTO","adm0_a3_de":"TTO","adm0_a3_gb":"TTO","adm0_a3_br":"TTO","adm0_a3_il":"TTO","adm0_a3_ps":"TTO","adm0_a3_sa":"TTO","adm0_a3_eg":"TTO","adm0_a3_ma":"TTO","adm0_a3_pt":"TTO","adm0_a3_ar":"TTO","adm0_a3_jp":"TTO","adm0_a3_ko":"TTO","adm0_a3_vn":"TTO","adm0_a3_tr":"TTO","adm0_a3_id":"TTO","adm0_a3_pl":"TTO","adm0_a3_gr":"TTO","adm0_a3_it":"TTO","adm0_a3_nl":"TTO","adm0_a3_se":"TTO","adm0_a3_bd":"TTO","adm0_a3_ua":"TTO","adm0_a3_un":-99,"adm0_a3_wb":-99,"continent":"North America","region_un":"Americas","wws_geo":"AMER","subregion":"Caribbean","region_wb":"Latin America & Caribbean","name_len":19,"long_len":19,"abbrev_len":5,"tiny":2,"homepart":1,"min_zoom":0,"min_label":4.5,"max_label":9.5,"label_x":-60.9184,"label_y":10.9989,"ne_id":1159321321,"wikidataid":"Q754","name_ar":"ترينيداد وتوباغو","name_bn":"ত্রিনিদাদ ও টোবাগো","name_de":"Trinidad und Tobago","name_en":"Trinidad and Tobago","name_es":"Trinidad y Tobago","name_fa":"ترینیداد و توباگو","name_fr":"Trinité-et-Tobago","name_el":"Τρινιντάντ και Τομπάγκο","name_he":"טרינידד וטובגו","name_hi":"त्रिनिदाद और टोबैगो","name_hu":"Trinidad és Tobago","name_id":"Trinidad dan Tobago","name_it":"Trinidad e Tobago","name_ja":"トリニダード・トバゴ","name_ko":"트리니다드 토바고","name_nl":"Trinidad en Tobago","name_pl":"Trynidad i Tobago","name_pt":"Trinidad e Tobago","name_ru":"Тринидад и Тобаго","name_sv":"Trinidad och Tobago","name_tr":"Trinidad ve Tobago","name_uk":"Тринідад і Тобаго","name_ur":"ٹرینیڈاڈ و ٹوباگو","name_vi":"Trinidad và Tobago","name_zh":"特立尼达和多巴哥","name_zht":"千里達及托巴哥","fclass_iso":"Admin-0 country","tlc_diff":null,"fclass_tlc":"Admin-0 country","fclass_us":null,"fclass_fr":null,"fclass_ru":null,"fclass_es":null,"fclass_cn":null,"fclass_tw":null,"fclass_in":null,"fclass_np":null,"fclass_pk":null,"fclass_de":null,"fclass_gb":null,"fclass_br":null,"fclass_il":null,"fclass_ps":null,"fclass_sa":null,"fclass_eg":null,"fclass_ma":null,"fclass_pt":null,"fclass_ar":null,"fclass_jp":null,"fclass_ko":null,"fclass_vn":null,"fclass_tr":null,"fclass_id":null,"fclass_pl":null,"fclass_gr":null,"fclass_it":null,"fclass_nl":null,"fclass_se":null,"fclass_bd":null,"fclass_ua":null,"filename":"TTO.geojson"},{"featurecla":"Admin-0 country","scalerank":1,"labelrank":5,"sovereignt":"United States of America","sov_a3":"US1","adm0_dif":1,"level":2,"type":"Dependency","tlc":1,"admin":"Puerto Rico","adm0_a3":"PRI","geou_dif":0,"geounit":"Puerto Rico","gu_a3":"PRI","su_dif":0,"subunit":"Puerto Rico","su_a3":"PRI","brk_diff":0,"name":"Puerto Rico","name_long":"Puerto Rico","brk_a3":"PRI","brk_name":"Puerto Rico","brk_group":null,"abbrev":"P.R.","postal":"PR","formal_en":"Commonwealth of Puerto Rico","formal_fr":null,"name_ciawf":"Puerto Rico","note_adm0":"U.S.A.","note_brk":null,"name_sort":"Puerto Rico","name_alt":null,"mapcolor7":4,"mapcolor8":5,"mapcolor9":1,"mapcolor13":1,"pop_est":3193694,"pop_rank":12,"pop_year":2019,"gdp_md":104988,"gdp_year":2019,"economy":"6. Developing region","income_grp":"2. High income: nonOECD","fips_10":"RQ","iso_a2":"PR","iso_a2_eh":"PR","iso_a3":"PRI","iso_a3_eh":"PRI","iso_n3":630,"iso_n3_eh":630,"un_a3":630,"wb_a2":"PR","wb_a3":"PRI","woe_id":23424935,"woe_id_eh":23424935,"woe_note":"Exact WOE match as country","adm0_iso":"PRI","adm0_diff":null,"adm0_tlc":"PRI","adm0_a3_us":"PRI","adm0_a3_fr":"PRI","adm0_a3_ru":"PRI","adm0_a3_es":"PRI","adm0_a3_cn":"PRI","adm0_a3_tw":"PRI","adm0_a3_in":"PRI","adm0_a3_np":"PRI","adm0_a3_pk":"PRI","adm0_a3_de":"PRI","adm0_a3_gb":"PRI","adm0_a3_br":"PRI","adm0_a3_il":"PRI","adm0_a3_ps":"PRI","adm0_a3_sa":"PRI","adm0_a3_eg":"PRI","adm0_a3_ma":"PRI","adm0_a3_pt":"PRI","adm0_a3_ar":"PRI","adm0_a3_jp":"PRI","adm0_a3_ko":"PRI","adm0_a3_vn":"PRI","adm0_a3_tr":"PRI","adm0_a3_id":"PRI","adm0_a3_pl":"PRI","adm0_a3_gr":"PRI","adm0_a3_it":"PRI","adm0_a3_nl":"PRI","adm0_a3_se":"PRI","adm0_a3_bd":"PRI","adm0_a3_ua":"PRI","adm0_a3_un":-99,"adm0_a3_wb":-99,"continent":"North America","region_un":"Americas","wws_geo":"AMER","subregion":"Caribbean","region_wb":"Latin America & Caribbean","name_len":11,"long_len":11,"abbrev_len":4,"tiny":-99,"homepart":-99,"min_zoom":0,"min_label":3,"max_label":8,"label_x":-66.481065,"label_y":18.234668,"ne_id":1159321363,"wikidataid":"Q1183","name_ar":"بورتوريكو","name_bn":"পুয়ের্তো রিকো","name_de":"Puerto Rico","name_en":"Puerto Rico","name_es":"Puerto Rico","name_fa":"پورتوریکو","name_fr":"Porto Rico","name_el":"Πουέρτο Ρίκο","name_he":"פוארטו ריקו","name_hi":"पोर्टो रीको","name_hu":"Puerto Rico","name_id":"Puerto Riko","name_it":"Porto Rico","name_ja":"プエルトリコ","name_ko":"푸에르토리코","name_nl":"Puerto Rico","name_pl":"Portoryko","name_pt":"Porto Rico","name_ru":"Пуэрто-Рико","name_sv":"Puerto Rico","name_tr":"Porto Riko","name_uk":"Пуерто-Рико","name_ur":"پورٹو ریکو","name_vi":"Puerto Rico","name_zh":"波多黎各","name_zht":"波多黎各","fclass_iso":"Admin-0 dependency","tlc_diff":null,"fclass_tlc":"Admin-0 dependency","fclass_us":null,"fclass_fr":null,"fclass_ru":null,"fclass_es":null,"fclass_cn":null,"fclass_tw":null,"fclass_in":null,"fclass_np":null,"fclass_pk":null,"fclass_de":null,"fclass_gb":null,"fclass_br":null,"fclass_il":null,"fclass_ps":null,"fclass_sa":null,"fclass_eg":null,"fclass_ma":null,"fclass_pt":null,"fclass_ar":null,"fclass_jp":null,"fclass_ko":null,"fclass_vn":null,"fclass_tr":null,"fclass_id":null,"fclass_pl":null,"fclass_gr":null,"fclass_it":null,"fclass_nl":null,"fclass_se":null,"fclass_bd":null,"fclass_ua":null,"filename":"PRI.geojson"},{"featurecla":"Admin-0 country","scalerank":1,"labelrank":4,"sovereignt":"Jamaica","sov_a3":"JAM","adm0_dif":0,"level":2,"type":"Sovereign country","tlc":1,"admin":"Jamaica","adm0_a3":"JAM","geou_dif":0,"geounit":"Jamaica","gu_a3":"JAM","su_dif":0,"subunit":"Jamaica","su_a3":"JAM","brk_diff":0,"name":"Jamaica","name_long":"Jamaica","brk_a3":"JAM","brk_name":"Jamaica","brk_group":null,"abbrev":"Jam.","postal":"J","formal_en":"Jamaica","formal_fr":null,"name_ciawf":"Jamaica","note_adm0":null,"note_brk":null,"name_sort":"Jamaica","name_alt":null,"mapcolor7":1,"mapcolor8":2,"mapcolor9":4,"mapcolor13":10,"pop_est":2948279,"pop_rank":12,"pop_year":2019,"gdp_md":16458,"gdp_year":2019,"economy":"6. Developing region","income_grp":"3. Upper middle income","fips_10":"JM","iso_a2":"JM","iso_a2_eh":"JM","iso_a3":"JAM","iso_a3_eh":"JAM","iso_n3":388,"iso_n3_eh":388,"un_a3":388,"wb_a2":"JM","wb_a3":"JAM","woe_id":23424858,"woe_id_eh":23424858,"woe_note":"Exact WOE match as country","adm0_iso":"JAM","adm0_diff":null,"adm0_tlc":"JAM","adm0_a3_us":"JAM","adm0_a3_fr":"JAM","adm0_a3_ru":"JAM","adm0_a3_es":"JAM","adm0_a3_cn":"JAM","adm0_a3_tw":"JAM","adm0_a3_in":"JAM","adm0_a3_np":"JAM","adm0_a3_pk":"JAM","adm0_a3_de":"JAM","adm0_a3_gb":"JAM","adm0_a3_br":"JAM","adm0_a3_il":"JAM","adm0_a3_ps":"JAM","adm0_a3_sa":"JAM","adm0_a3_eg":"JAM","adm0_a3_ma":"JAM","adm0_a3_pt":"JAM","adm0_a3_ar":"JAM","adm0_a3_jp":"JAM","adm0_a3_ko":"JAM","adm0_a3_vn":"JAM","adm0_a3_tr":"JAM","adm0_a3_id":"JAM","adm0_a3_pl":"JAM","adm0_a3_gr":"JAM","adm0_a3_it":"JAM","adm0_a3_nl":"JAM","adm0_a3_se":"JAM","adm0_a3_bd":"JAM","adm0_a3_ua":"JAM","adm0_a3_un":-99,"adm0_a3_wb":-99,"continent":"North America","region_un":"Americas","wws_geo":"AMER","subregion":"Caribbean","region_wb":"Latin America & Caribbean","name_len":7,"long_len":7,"abbrev_len":4,"tiny":-99,"homepart":1,"min_zoom":0,"min_label":4,"max_label":9,"label_x":-77.318767,"label_y":18.137124,"ne_id":1159320931,"wikidataid":"Q766","name_ar":"جامايكا","name_bn":"জ্যামাইকা","name_de":"Jamaika","name_en":"Jamaica","name_es":"Jamaica","name_fa":"جامائیکا","name_fr":"Jamaïque","name_el":"Τζαμάικα","name_he":"ג'מייקה","name_hi":"जमैका","name_hu":"Jamaica","name_id":"Jamaika","name_it":"Giamaica","name_ja":"ジャマイカ","name_ko":"자메이카","name_nl":"Jamaica","name_pl":"Jamajka","name_pt":"Jamaica","name_ru":"Ямайка","name_sv":"Jamaica","name_tr":"Jamaika","name_uk":"Ямайка","name_ur":"جمیکا","name_vi":"Jamaica","name_zh":"牙买加","name_zht":"牙買加","fclass_iso":"Admin-0 country","tlc_diff":null,"fclass_tlc":"Admin-0 country","fclass_us":null,"fclass_fr":null,"fclass_ru":null,"fclass_es":null,"fclass_cn":null,"fclass_tw":null,"fclass_in":null,"fclass_np":null,"fclass_pk":null,"fclass_de":null,"fclass_gb":null,"fclass_br":null,"fclass_il":null,"fclass_ps":null,"fclass_sa":null,"fclass_eg":null,"fclass_ma":null,"fclass_pt":null,"fclass_ar":null,"fclass_jp":null,"fclass_ko":null,"fclass_vn":null,"fclass_tr":null,"fclass_id":null,"fclass_pl":null,"fclass_gr":null,"fclass_it":null,"fclass_nl":null,"fclass_se":null,"fclass_bd":null,"fclass_ua":null,"filename":"JAM.geojson"}]